start=new Date('2023-03-01T00:00:00.000Z').valueOf();
sats=[{"ELEMENT_SET_NO":"999","TLE_LINE2":"2 55352  42.9998 201.9031 0001723 274.6187  85.4484 15.71344344  5720","SEMIMAJOR_AXIS":"6733.191","MEAN_MOTION":"15.71344344","MEAN_MOTION_DOT":"0.00002906","TIME_SYSTEM":"UTC","LAUNCH_DATE":"2023-01-26","DECAY_DATE":null,"REV_AT_EPOCH":"572","OBJECT_NAME":"STARLINK-5547","TLE_LINE1":"1 55352U 23013X   23059.75498718  .00002906  00000-0  25610-4 0  9992","RA_OF_ASC_NODE":"201.9031","REF_FRAME":"TEME","MEAN_ELEMENT_THEORY":"SGP4","INCLINATION":"42.9998","OBJECT_TYPE":"PAYLOAD","GP_ID":"227272387","SITE":"AFETR","PERIOD":"91.641","COUNTRY_CODE":"US","OBJECT_ID":"2023-013X","NORAD_CAT_ID":"55352","EPOCH":"2023-02-28T18:07:10.892352","BSTAR":"0.00002561000000","EPHEMERIS_TYPE":"0","FILE":"3847713","MEAN_ANOMALY":"85.4484","ECCENTRICITY":"0.00017230","PERIAPSIS":"353.896","CLASSIFICATION_TYPE":"U","APOAPSIS":"356.216","MEAN_MOTION_DDOT":"0.0000000000000","ARG_OF_PERICENTER":"274.6187","CENTER_NAME":"EARTH","RCS_SIZE":"LARGE"},{"CENTER_NAME":"EARTH","RCS_SIZE":"LARGE","APOAPSIS":"356.364","MEAN_MOTION_DDOT":"0.0000000000000","ARG_OF_PERICENTER":"265.9720","PERIAPSIS":"353.772","CLASSIFICATION_TYPE":"U","ECCENTRICITY":"0.00019250","FILE":"3847656","MEAN_ANOMALY":"94.0928","BSTAR":"-0.00003077400000","EPHEMERIS_TYPE":"0","EPOCH":"2023-02-28T16:34:16.811040","COUNTRY_CODE":"US","OBJECT_ID":"2023-013Y","NORAD_CAT_ID":"55353","GP_ID":"227269945","OBJECT_TYPE":"PAYLOAD","SITE":"AFETR","PERIOD":"91.642","RA_OF_ASC_NODE":"202.2767","MEAN_ELEMENT_THEORY":"SGP4","REF_FRAME":"TEME","INCLINATION":"43.0008","DECAY_DATE":null,"REV_AT_EPOCH":"528","OBJECT_NAME":"STARLINK-5608","TLE_LINE1":"1 55353U 23013Y   23059.69047235 -.00004483  00000-0 -30774-4 0  9991","TIME_SYSTEM":"UTC","MEAN_MOTION_DOT":"-0.00004483","LAUNCH_DATE":"2023-01-26","SEMIMAJOR_AXIS":"6733.203","MEAN_MOTION":"15.71340058","ELEMENT_SET_NO":"999","TLE_LINE2":"2 55353  43.0008 202.2767 0001925 265.9720  94.0928 15.71340058  5283"},{"TLE_LINE2":"2 55354  42.9989 201.5213 0002436 276.6267  83.4324 15.71368722  5304","ELEMENT_SET_NO":"999","MEAN_MOTION":"15.71368722","SEMIMAJOR_AXIS":"6733.121","MEAN_MOTION_DOT":"0.00032638","TIME_SYSTEM":"UTC","LAUNCH_DATE":"2023-01-26","TLE_LINE1":"1 55354U 23013Z   23059.81844599  .00032638  00000-0  25120-3 0  9993","REV_AT_EPOCH":"530","DECAY_DATE":null,"OBJECT_NAME":"STARLINK-5649","MEAN_ELEMENT_THEORY":"SGP4","REF_FRAME":"TEME","INCLINATION":"42.9989","RA_OF_ASC_NODE":"201.5213","SITE":"AFETR","PERIOD":"91.640","GP_ID":"227270197","OBJECT_TYPE":"PAYLOAD","NORAD_CAT_ID":"55354","COUNTRY_CODE":"US","OBJECT_ID":"2023-013Z","EPOCH":"2023-02-28T19:38:33.733536","EPHEMERIS_TYPE":"0","BSTAR":"0.00025120000000","MEAN_ANOMALY":"83.4324","FILE":"3847656","ECCENTRICITY":"0.00024360","CLASSIFICATION_TYPE":"U","PERIAPSIS":"353.346","MEAN_MOTION_DDOT":"0.0000000000000","ARG_OF_PERICENTER":"276.6267","APOAPSIS":"356.626","CENTER_NAME":"EARTH","RCS_SIZE":"LARGE"},{"EPOCH":"2023-02-28T19:37:56.632512","NORAD_CAT_ID":"55355","COUNTRY_CODE":"US","OBJECT_ID":"2023-013AA","SITE":"AFETR","PERIOD":"91.641","GP_ID":"227270947","OBJECT_TYPE":"PAYLOAD","MEAN_ELEMENT_THEORY":"SGP4","REF_FRAME":"TEME","INCLINATION":"42.9998","RA_OF_ASC_NODE":"201.5142","TLE_LINE1":"1 55355U 23013AA  23059.81801658  .00013509  00000-0  10631-3 0  9990","OBJECT_NAME":"STARLINK-5647","DECAY_DATE":null,"REV_AT_EPOCH":"530","TIME_SYSTEM":"UTC","MEAN_MOTION_DOT":"0.00013509","LAUNCH_DATE":"2023-01-26","MEAN_MOTION":"15.71352499","SEMIMAJOR_AXIS":"6733.168","TLE_LINE2":"2 55355  42.9998 201.5142 0001729 262.5487  97.5185 15.71352499  5303","ELEMENT_SET_NO":"999","RCS_SIZE":"LARGE","CENTER_NAME":"EARTH","MEAN_MOTION_DDOT":"0.0000000000000","ARG_OF_PERICENTER":"262.5487","APOAPSIS":"356.197","CLASSIFICATION_TYPE":"U","PERIAPSIS":"353.868","ECCENTRICITY":"0.00017290","MEAN_ANOMALY":"97.5185","FILE":"3847656","EPHEMERIS_TYPE":"0","BSTAR":"0.00010631000000"},{"ELEMENT_SET_NO":"999","TLE_LINE2":"2 55356  43.0006 201.9013 0001735 282.5082  77.5591 15.71340489  5290","SEMIMAJOR_AXIS":"6733.202","MEAN_MOTION":"15.71340489","LAUNCH_DATE":"2023-01-26","MEAN_MOTION_DOT":"0.00004776","TIME_SYSTEM":"UTC","DECAY_DATE":null,"OBJECT_NAME":"STARLINK-5083","REV_AT_EPOCH":"529","TLE_LINE1":"1 55356U 23013AB  23059.75466725  .00004776  00000-0  39874-4 0  9993","RA_OF_ASC_NODE":"201.9013","INCLINATION":"43.0006","REF_FRAME":"TEME","MEAN_ELEMENT_THEORY":"SGP4","OBJECT_TYPE":"PAYLOAD","GP_ID":"227269196","PERIOD":"91.642","SITE":"AFETR","OBJECT_ID":"2023-013AB","COUNTRY_CODE":"US","NORAD_CAT_ID":"55356","EPOCH":"2023-02-28T18:06:43.250400","BSTAR":"0.00003987400000","EPHEMERIS_TYPE":"0","FILE":"3847656","MEAN_ANOMALY":"77.5591","ECCENTRICITY":"0.00017350","PERIAPSIS":"353.899","CLASSIFICATION_TYPE":"U","APOAPSIS":"356.235","ARG_OF_PERICENTER":"282.5082","MEAN_MOTION_DDOT":"0.0000000000000","CENTER_NAME":"EARTH","RCS_SIZE":"LARGE"},{"REF_FRAME":"TEME","MEAN_ELEMENT_THEORY":"SGP4","INCLINATION":"42.9987","RA_OF_ASC_NODE":"202.2803","SITE":"AFETR","PERIOD":"91.643","GP_ID":"227269446","OBJECT_TYPE":"PAYLOAD","NORAD_CAT_ID":"55357","COUNTRY_CODE":"US","OBJECT_ID":"2023-013AC","EPOCH":"2023-02-28T16:34:44.469408","TLE_LINE2":"2 55357  42.9987 202.2803 0002156 274.0596  86.0026 15.71315628  5286","ELEMENT_SET_NO":"999","MEAN_MOTION":"15.71315628","SEMIMAJOR_AXIS":"6733.273","MEAN_MOTION_DOT":"0.00011595","TIME_SYSTEM":"UTC","LAUNCH_DATE":"2023-01-26","TLE_LINE1":"1 55357U 23013AC  23059.69079247  .00011595  00000-0  91894-4 0  9993","REV_AT_EPOCH":"528","DECAY_DATE":null,"OBJECT_NAME":"STARLINK-5651","CLASSIFICATION_TYPE":"U","PERIAPSIS":"353.686","MEAN_MOTION_DDOT":"0.0000000000000","ARG_OF_PERICENTER":"274.0596","APOAPSIS":"356.590","CENTER_NAME":"EARTH","RCS_SIZE":"LARGE","EPHEMERIS_TYPE":"0","BSTAR":"0.00009189400000","MEAN_ANOMALY":"86.0026","FILE":"3847656","ECCENTRICITY":"0.00021560"},{"BSTAR":"0.00056416000000","EPHEMERIS_TYPE":"0","ECCENTRICITY":"0.00024120","FILE":"3847684","MEAN_ANOMALY":"103.0837","APOAPSIS":"356.662","ARG_OF_PERICENTER":"256.9761","MEAN_MOTION_DDOT":"0.0000000000000","PERIAPSIS":"353.414","CLASSIFICATION_TYPE":"U","CENTER_NAME":"EARTH","RCS_SIZE":"LARGE","SEMIMAJOR_AXIS":"6733.173","MEAN_MOTION":"15.71350632","ELEMENT_SET_NO":"999","TLE_LINE2":"2 55358  43.0000 201.8997 0002412 256.9761 103.0837 15.71350632  5725","DECAY_DATE":null,"REV_AT_EPOCH":"572","OBJECT_NAME":"STARLINK-5622","TLE_LINE1":"1 55358U 23013AD  23059.75456247  .00074178  00000-0  56416-3 0  9996","LAUNCH_DATE":"2023-01-26","MEAN_MOTION_DOT":"0.00074178","TIME_SYSTEM":"UTC","OBJECT_TYPE":"PAYLOAD","GP_ID":"227271974","PERIOD":"91.641","SITE":"AFETR","RA_OF_ASC_NODE":"201.8997","INCLINATION":"43.0000","MEAN_ELEMENT_THEORY":"SGP4","REF_FRAME":"TEME","EPOCH":"2023-02-28T18:06:34.197408","OBJECT_ID":"2023-013AD","COUNTRY_CODE":"US","NORAD_CAT_ID":"55358"},{"MEAN_MOTION":"15.71357620","SEMIMAJOR_AXIS":"6733.153","TLE_LINE2":"2 55359  43.0006 201.5132 0002145 269.2565  90.8057 15.71357620  5307","ELEMENT_SET_NO":"999","TLE_LINE1":"1 55359U 23013AE  23059.81780440  .00003209  00000-0  27909-4 0  9992","OBJECT_NAME":"STARLINK-5641","DECAY_DATE":null,"REV_AT_EPOCH":"530","LAUNCH_DATE":"2023-01-26","MEAN_MOTION_DOT":"0.00003209","TIME_SYSTEM":"UTC","PERIOD":"91.641","SITE":"AFETR","OBJECT_TYPE":"PAYLOAD","GP_ID":"227270448","INCLINATION":"43.0006","MEAN_ELEMENT_THEORY":"SGP4","REF_FRAME":"TEME","RA_OF_ASC_NODE":"201.5132","EPOCH":"2023-02-28T19:37:38.300160","NORAD_CAT_ID":"55359","OBJECT_ID":"2023-013AE","COUNTRY_CODE":"US","EPHEMERIS_TYPE":"0","BSTAR":"0.00002790900000","ECCENTRICITY":"0.00021450","MEAN_ANOMALY":"90.8057","FILE":"3847656","ARG_OF_PERICENTER":"269.2565","MEAN_MOTION_DDOT":"0.0000000000000","APOAPSIS":"356.462","CLASSIFICATION_TYPE":"U","PERIAPSIS":"353.574","RCS_SIZE":"LARGE","CENTER_NAME":"EARTH"},{"COUNTRY_CODE":"US","OBJECT_ID":"2023-013AF","NORAD_CAT_ID":"55360","EPOCH":"2023-02-28T22:00:00.999936","RA_OF_ASC_NODE":"201.4150","MEAN_ELEMENT_THEORY":"SGP4","REF_FRAME":"TEME","INCLINATION":"42.9992","GP_ID":"227271990","OBJECT_TYPE":"PAYLOAD","SITE":"AFETR","PERIOD":"92.678","MEAN_MOTION_DOT":"-0.01203670","TIME_SYSTEM":"UTC","LAUNCH_DATE":"2023-01-26","REV_AT_EPOCH":"574","DECAY_DATE":null,"OBJECT_NAME":"STARLINK-5664","TLE_LINE1":"1 55360U 23013AF  23059.91667824 -.01203670  00000-0 -20061-1 0  9991","ELEMENT_SET_NO":"999","TLE_LINE2":"2 55360  42.9992 201.4150 0001802 265.3669  93.5358 15.53765480  5740","SEMIMAJOR_AXIS":"6783.881","MEAN_MOTION":"15.53765480","CENTER_NAME":"EARTH","RCS_SIZE":"LARGE","PERIAPSIS":"404.523","CLASSIFICATION_TYPE":"U","APOAPSIS":"406.968","MEAN_MOTION_DDOT":"0.0000000000000","ARG_OF_PERICENTER":"265.3669","FILE":"3847685","MEAN_ANOMALY":"93.5358","ECCENTRICITY":"0.00018020","BSTAR":"-0.02006100000000","EPHEMERIS_TYPE":"0"},{"REV_AT_EPOCH":"572","DECAY_DATE":null,"OBJECT_NAME":"STARLINK-5665","TLE_LINE1":"1 55361U 23013AG  23059.75372803 -.00018277  00000-0 -13661-3 0  9990","TIME_SYSTEM":"UTC","MEAN_MOTION_DOT":"-0.00018277","LAUNCH_DATE":"2023-01-26","SEMIMAJOR_AXIS":"6733.333","MEAN_MOTION":"15.71294617","ELEMENT_SET_NO":"999","TLE_LINE2":"2 55361  42.9992 201.8919 0000439 216.8575 143.2262 15.71294617  5724","EPOCH":"2023-02-28T18:05:22.101792","COUNTRY_CODE":"US","OBJECT_ID":"2023-013AG","NORAD_CAT_ID":"55361","OBJECT_TYPE":"PAYLOAD","GP_ID":"227271989","SITE":"AFETR","PERIOD":"91.644","RA_OF_ASC_NODE":"201.8919","MEAN_ELEMENT_THEORY":"SGP4","REF_FRAME":"TEME","INCLINATION":"42.9992","ECCENTRICITY":"0.00004390","FILE":"3847685","MEAN_ANOMALY":"143.2262","BSTAR":"-0.00013661000000","EPHEMERIS_TYPE":"0","RCS_SIZE":"LARGE","CENTER_NAME":"EARTH","APOAPSIS":"355.494","MEAN_MOTION_DDOT":"0.0000000000000","ARG_OF_PERICENTER":"216.8575","PERIAPSIS":"354.902","CLASSIFICATION_TYPE":"U"}];
